SENTINEL-2A             
1 40697U 15028A   26199.82309602  .00000107  00000+0  57613-4 0  9992
2 40697  98.5673 274.2241 0001305  95.7199 264.4132 14.30815215578256
SENTINEL-2B             
1 42063U 17013A   26199.81590475  .00000130  00000+0  66313-4 0  9999
2 42063  98.5681 274.1425 0001218  92.9836 267.1486 14.30816138489165
SENTINEL-2C             
1 60989U 24157A   26199.78095461  .00000036  00000+0  30437-4 0  9997
2 60989  98.5682 274.1142 0001022 105.5193 254.6103 14.30816271 97507
